satname,norad_id,inclination_deg,eccentricity,mean_motion_rev_per_day,perigee_km,apogee_km,l1,l2
STARLINK-1008,44714,53.0535,0.0001319,15.06378789,546.3631053116087,548.1900294106772,1 44714U 19074B   25255.43082549  .00001433  00000+0  11515-3 0  9991,2 44714  53.0535 266.8562 0001319  95.5010 264.6129 15.06378789321888
STARLINK-1010,44716,53.0526,0.0010817,15.76153058,334.08355013546134,348.6204926843793,1 44716U 19074D   25255.20003789  .00085371  00000+0  53187-3 0  9991,2 44716  53.0526 221.3246 0010817  24.4331 335.7199 15.76153058322486
STARLINK-1011,44717,53.0519,0.0006066,15.65532346,367.6137178758954,375.80263004094104,1 44717U 19074E   25255.43468625  .00103804  00000+0  10075-2 0  9991,2 44717  53.0519 273.3430 0006066  13.1055 347.0116 15.65532346321797
STARLINK-1012,44718,53.0533,0.0001467,15.06394982,546.2109865386246,548.2428883178663,1 44718U 19074F   25254.34714757 -.00000929  00000+0 -43495-4 0  9991,2 44718  53.0533 271.7224 0001467  86.4222 273.6935 15.06394982321718
STARLINK-1015,44721,53.0456,0.000262,15.9439432,288.25553107218,291.7496362140082,1 44721U 19074J   25255.66672454  .00314170  49554-4  82327-3 0  9990,2 44721  53.0456 207.7610 0002620  21.8314 317.2262 15.94394320  5924
STARLINK-1017,44723,53.0502,0.0003213,15.10519217,532.3943825383049,536.8365172626109,1 44723U 19074L   25254.32759266  .00019668  00000+0  11941-2 0  9996,2 44723  53.0502 270.5634 0003213 340.9574  19.1296 15.10519217321731
STARLINK-1019,44724,53.0544,0.0001286,15.06396993,546.3301729657869,548.1113749852539,1 44724U 19074M   25254.47615243  .00000389  00000+0  45012-4 0  9997,2 44724  53.0544 271.1421 0001286  86.3150 273.7986 15.06396993321731
STARLINK-1020,44725,53.055,0.0001299,15.06396478,546.3227482021739,548.1219565619222,1 44725U 19074N   25254.48168733 -.00002231  00000+0 -13091-3 0  9997,2 44725  53.0550 291.1168 0001299  92.2663 267.8475 15.06396478321452
STARLINK-1021,44726,53.0446,0.0003262,15.88572178,304.1047468010247,308.46566384777816,1 44726U 19074P   25255.66672454  .00307048  00000+0  10408-2 0  9999,2 44726  53.0446 213.3490 0003262   6.4677 175.0417 15.88572178  5958
STARLINK-1029,44734,53.0503,0.0008386,15.83418492,315.1638714883575,326.39929773847143,1 44734U 19074X   25255.66672454  .00216142  00000+0  94962-3 0  9990,2 44734  53.0503 136.8600 0008386  89.7072 124.7219 15.83418492  6009
STARLINK-1030,44735,53.037,0.0002394,16.10451847,244.01832248533356,247.18976969820142,1 44735U 19074Y   25255.22644846  .00677614  25760-3  68261-3 0  9999,2 44735  53.0370 232.0979 0002394 139.4954 220.6259 16.10451847322345
STARLINK-1031,44736,53.0544,0.0006569,15.36279696,452.63200308605883,461.612166471642,1 44736U 19074Z   25254.35616982  .00067012  00000+0  18606-2 0  9991,2 44736  53.0544 273.4481 0006569 337.8334  22.2383 15.36279696321700
STARLINK-1036,44741,53.0541,0.0001176,15.06401179,546.393523909971,548.0223650409125,1 44741U 19074AE  25253.84770072  .00001204  00000+0  99671-4 0  9995,2 44741  53.0541 293.9652 0001176  96.3436 263.7687 15.06401179321360
STARLINK-1039,44744,53.0539,0.0004317,15.09057248,536.0932660728322,542.0655907371183,1 44744U 19074AH  25255.58443656  .00014781  00000+0  93910-3 0  9999,2 44744  53.0539 305.6500 0004317 318.8799  41.1865 15.09057248321359
STARLINK-1042,44747,53.0467,0.0002921,15.40556546,442.47277187173586,446.4585363422657,1 44747U 19074AL  25254.22309016  .00014301  00000+0  35575-3 0  9994,2 44747  53.0467 229.7399 0002921   8.2021 351.9030 15.40556546322325
STARLINK-1043,44748,53.0542,0.0001022,15.06413967,546.4609851778423,547.8765176734332,1 44748U 19074AM  25255.54507739  .00003556  00000+0  25739-3 0  9994,2 44748  53.0542 306.3454 0001022  89.7821 270.3286 15.06413967321346
STARLINK-1046,44751,53.0547,0.0001857,15.06489084,545.652555235044,548.2245282912554,1 44751U 19074AQ  25255.55977060 -.00027140  00000+0 -18056-2 0  9997,2 44751  53.0547 306.2793 0001857 119.1252 240.9923 15.06489084321346
STARLINK-1047,44752,53.0722,0.000471,15.27808334,479.13417039239084,485.5967637163567,1 44752U 19074AR  25254.41182601  .00017854  00000+0  65974-3 0  9992,2 44752  53.0722 260.5405 0004710  33.1887 326.9407 15.27808334321892
STARLINK-1048,44753,53.0542,0.0001195,15.06392436,546.4071586828641,548.06232252887,1 44753U 19074AS  25254.32503027 -.00000642  00000+0 -24220-4 0  9991,2 44753  53.0542 271.8197 0001195  86.0613 274.0512 15.06392436321713
STARLINK-1053,44758,53.0418,0.000342,15.54476108,401.3565664185762,405.99532647394517,1 44758U 19074AX  25255.38112286  .00029114  00000+0  44030-3 0  9999,2 44758  53.0418 243.2098 0003420  52.8935 307.2387 15.54476108322222
STARLINK-1054,44759,53.0461,0.0010998,15.62477223,373.07083641496774,387.9371431360769,1 44759U 19074AY  25255.66672454  .00127108  00000+0  13836-2 0  9990,2 44759  53.0461 272.0831 0010998 341.6599 312.7849 15.62477223  5948
STARLINK-1056,44761,53.0444,0.0011481,15.74106892,339.45249615821194,354.8951548757632,1 44761U 19074BA  25255.66672454  .00099784  00000+0  67741-3 0  9996,2 44761  53.0444 262.2348 0011481   7.2940 171.7199 15.74106892  5977
STARLINK-1057,44762,53.0436,0.000392,15.90682821,297.7529772751195,302.98892750979485,1 44762U 19074BB  25255.58335648  .00272020  38417-4  86654-3 0  9997,2 44762  53.0436 234.5875 0003920  12.5867  65.7305 15.90682821  5994
STARLINK-1060,44765,53.0546,9.82e-05,15.20244068,504.4278663990617,505.77973489230953,1 44765U 19074BE  25255.58335648  .00631064  00000+0  26991-1 0  9995,2 44765  53.0546 285.5238 0000982  67.1028 164.7791 15.20244068  5830
STARLINK-1063,44768,53.0539,0.0001448,15.06399974,546.2088471418065,548.2144281072615,1 44768U 19074BH  25255.54875105 -.00007933  00000+0 -51424-3 0  9996,2 44768  53.0539 306.3257 0001448  89.5305 270.5850 15.06399974321353
STARLINK-1067,44771,53.0547,0.0001156,15.06412732,546.3719706844458,547.973102249276,1 44771U 19074BL  25253.87902665 -.00001540  00000+0 -84510-4 0  9997,2 44771  53.0547 313.8241 0001156  70.6240 289.4873 15.06412732321090
STARLINK-1068,44772,53.0557,0.000147,15.06404981,546.1782679388243,548.2143159266525,1 44772U 19074BM  25254.40058115  .00002023  00000+0  15462-3 0  9994,2 44772  53.0557 291.4830 0001470  85.0067 275.1089 15.06404981321440
STARLINK-1098,44917,53.0397,0.0008321,16.23562697,204.41458984238852,215.37839518062538,1 44917U 20001D   25254.87209917  .02307225  11930-4  86665-3 0  9992,2 44917  53.0397   9.3278 0008321 340.3827  19.6892 16.23562697313733
STARLINK-1112,44925,53.0543,0.0005154,15.45094336,427.59141736784113,434.6103797936994,1 44925U 20001M   25254.72587595  .00019557  00000+0  41465-3 0  9992,2 44925  53.0543  42.9321 0005154 128.0376 232.1096 15.45094336313256
STARLINK-1114,44927,53.0553,0.0001252,15.06402304,546.3374437637494,548.0715492744794,1 44927U 20001P   25255.50083879  .00000063  00000+0  23136-4 0  9995,2 44927  53.0553  66.5412 0001252  88.5083 271.6049 15.06402304312993
STARLINK-1123,44930,53.0559,0.0001303,15.06404431,546.2956064471655,548.1003487423268,1 44930U 20001S   25255.51558989  .00000664  00000+0  63442-4 0  9990,2 44930  53.0559  66.4728 0001303  94.7069 265.4069 15.06404431312998
STARLINK-1144,44933,53.0502,0.0009834,15.48259866,415.12933709240133,428.5034854617006,1 44933U 20001V   25255.45889212  .00028748  00000+0  54162-3 0  9993,2 44933  53.0502  18.1849 0009834 258.0079 101.9826 15.48259866314960
STARLINK-1071,44934,53.0359,0.0007109,16.16437309,224.5455043936381,233.93987683775504,1 44934U 20001W   25255.35551801  .00996515  67678-3  66380-3 0  9992,2 44934  53.0359 344.8534 0007109 353.2000   6.8938 16.16437309314116
STARLINK-1091,44940,53.0444,0.0003843,15.72622307,348.819543104486,353.9918696285986,1 44940U 20001AC  25255.58335648  .00160692  00000+0  11552-2 0  9994,2 44940  53.0444   4.7530 0003843 257.8861 248.1768 15.72622307  6015
STARLINK-1094,44941,53.0557,3.92e-05,15.06367528,547.0396041644317,547.5825592940391,1 44941U 20001AD  25255.46215517 -.00007233  00000+0 -46762-3 0  9999,2 44941  53.0557  46.7168 0000392  13.9968 346.1032 15.06367528313268
STARLINK-1096,44942,52.9944,0.0003093,15.73992622,345.4190819977566,349.5795606261199,1 44942U 20001AE  25254.56611200  .00084789  00000+0  58212-3 0  9991,2 44942  52.9944 196.5722 0003093  98.3962 261.7407 15.73992622316117
STARLINK-1122,44949,53.0553,0.0001086,15.06397114,546.4683093127596,547.972496940718,1 44949U 20001AM  25254.75444329  .00000582  00000+0  57956-4 0  9999,2 44949  53.0553  49.8864 0001086  88.0904 272.0209 15.06397114313158
STARLINK-1066,44954,53.042,0.000599,16.03128596,261.78096353324327,269.74035292780354,1 44954U 20001AS  25255.60197597  .00413833  87783-4  65966-3 0  9996,2 44954  53.0420 330.0033 0005990   5.6879 354.4219 16.03128596314290
STARLINK-1080,44961,53.0565,0.0001134,15.06395245,546.4407951876683,548.0114675458635,1 44961U 20001AZ  25254.68625295 -.00001585  00000+0 -87523-4 0  9997,2 44961  53.0565  30.1983 0001134  91.1538 268.9581 15.06395245313433
STARLINK-1090,44968,53.0562,0.000107,15.06402159,546.4639293344553,547.9459525098127,1 44968U 20001BG  25254.68994584  .00000306  00000+0  39453-4 0  9991,2 44968  53.0562  30.1833 0001070  89.5048 270.6064 15.06402159313436
STARLINK-1107,44972,53.014,0.0007395,15.53974909,400.11785135561786,410.15030928341,1 44972U 20001BL  25255.54964549  .00060333  00000+0  91706-3 0  9994,2 44972  53.0140 319.8038 0007395  20.3363 339.7940 15.53974909314492
STARLINK-1132,45044,53.0566,0.0001306,15.06407119,546.2852916423726,548.094186986682,1 45044U 20006A   25255.51190531  .00004699  00000+0  33409-3 0  9998,2 45044  53.0566 346.4914 0001306  87.3593 272.7546 15.06407119309885
STARLINK-1131,45047,53.058,0.0001285,15.06387989,546.3584581479054,548.1382821880388,1 45047U 20006D   25254.62551197 -.00000111  00000+0  11417-4 0  9993,2 45047  53.0580  11.0095 0001285  87.6208 272.4928 15.06387989309468
